ONEWEB-0410             
1 51622U 22012A   26200.49014198 -.00000037  00000+0 -12962-3 0  9993
2 51622  87.9161 359.4342 0001486  49.7163 310.4098 13.17648173217959
ONEWEB-0411             
1 51623U 22012B   26200.46526642 -.00000275  00000+0 -82459-3 0  9995
2 51623  87.8820  29.8358 0002363  94.8847 265.2550 13.10372757213514
ONEWEB-0415             
1 51624U 22012C   26200.46187514 -.00000172  00000+0 -52990-3 0  9990
2 51624  87.8816  29.8341 0002107  86.6062 273.5306 13.10369371213515
ONEWEB-0416             
1 51625U 22012D   26200.47374804 -.00000582  00000+0 -17032-2 0  9994
2 51625  87.8811  29.8481 0002145  83.4550 276.6822 13.10373848213550
ONEWEB-0422             
1 51626U 22012E   26200.50026979  .00000011  00000+0 -48421-5 0  9991
2 51626  87.9159 359.4330 0002017 112.6134 247.5212 13.17647921218067
ONEWEB-0423             
1 51627U 22012F   26200.49352366  .00000057  00000+0  11380-3 0  9993
2 51627  87.9150 359.4374 0001754  92.8146 267.3187 13.17648849217954
ONEWEB-0425             
1 51628U 22012G   26200.48397142 -.00011639  00000+0 -33446-1 0  9999
2 51628  87.8827  29.8304 0002456  92.1028 268.0380 13.10317634213551
ONEWEB-0428             
1 51629U 22012H   26200.46356544 -.00000255  00000+0 -76548-3 0  9993
2 51629  87.8809  29.8410 0001827  88.9185 271.2152 13.10372733213518
ONEWEB-0431             
1 51630U 22012J   26200.50925261  .00000544  00000+0  15210-2 0  9995
2 51630  87.8820  29.8246 0002426  94.2714 265.8691 13.10374413213574
ONEWEB-0434             
1 51631U 22012K   26200.48747025 -.00000421  00000+0 -12415-2 0  9993
2 51631  87.8824  29.8555 0001413  70.6886 289.4394 13.10376715213552
ONEWEB-0435             
1 51632U 22012L   26200.49410934 -.00000137  00000+0 -42736-3 0  9995
2 51632  87.8818  29.8378 0001933  98.3140 261.8207 13.10379402213548
ONEWEB-0436             
1 51633U 22012M   26200.48508543  .00000037  00000+0  61780-4 0  9997
2 51633  87.9155 359.4229 0001968  99.9416 260.1938 13.17647484217937
ONEWEB-0438             
1 51634U 22012N   26200.47882768 -.00000689  00000+0 -20115-2 0  9991
2 51634  87.8817  29.8446 0001770  81.4217 278.7111 13.10372308213574
ONEWEB-0439             
1 51635U 22012P   26200.48222801 -.00000611  00000+0 -17875-2 0  9993
2 51635  87.8817  29.8317 0001740  87.1211 273.0115 13.10375943213554
ONEWEB-0442             
1 51636U 22012Q   26200.47749224 -.00000026  00000+0 -99918-4 0  9996
2 51636  87.9151 359.4541 0001577  76.1941 283.9366 13.17650711217923
ONEWEB-0443             
1 51637U 22012R   26200.49689541  .00000097  00000+0  21745-3 0  9992
2 51637  87.9147 359.4518 0001588  99.3494 260.7817 13.17647735217976
ONEWEB-0444             
1 51638U 22012S   26200.47204490 -.00000587  00000+0 -17187-2 0  9997
2 51638  87.8819  29.8324 0001663  92.2237 267.9080 13.10371061213567
ONEWEB-0445             
1 51639U 22012T   26200.49240403 -.00000550  00000+0 -16123-2 0  9993
2 51639  87.8825  29.8188 0001906  85.4474 274.6871 13.10376342213571
ONEWEB-0446             
1 51640U 22012U   26200.47034651 -.00000509  00000+0 -14948-2 0  9996
2 51640  87.8814  29.8497 0002080  81.7662 278.3701 13.10370491213556
ONEWEB-0448             
1 51641U 22012V   26200.47543518 -.00000631  00000+0 -18445-2 0  9996
2 51641  87.8813  29.8441 0001819  89.0002 271.1334 13.10371945213528
ONEWEB-0449             
1 51642U 22012W   26200.48052569 -.00000715  00000+0 -20851-2 0  9996
2 51642  87.8824  29.8305 0001747  68.9724 291.1591 13.10373307213539
ONEWEB-0451             
1 51643U 22012X   26200.48170092 -.00000201  00000+0 -55154-3 0  9994
2 51643  87.9160 359.4219 0001689  89.5771 270.5554 13.17648840217916
ONEWEB-0452             
1 51644U 22012Y   26200.48002394  .00000052  00000+0  99589-4 0  9997
2 51644  87.9146 359.4561 0001538  94.0035 266.1273 13.17646953217921
ONEWEB-0456             
1 51646U 22012AA  26200.48900595 -.00000419  00000+0 -12360-2 0  9998
2 51646  87.8833  29.8183 0001779  93.6455 266.4876 13.10374556213570
ONEWEB-0457             
1 51647U 22012AB  26200.46682181 -.00000385  00000+0 -11389-2 0  9997
2 51647  87.8816  29.8378 0002028  78.6709 281.4646 13.10369800213579
ONEWEB-0458             
1 51648U 22012AC  26200.48816849 -.00000439  00000+0 -12943-2 0  9997
2 51648  87.8819  29.8223 0001608  88.5457 271.5854 13.10375826213537
ONEWEB-0461             
1 51649U 22012AD  26200.50195786 -.00000120  00000+0 -34147-3 0  9999
2 51649  87.9161 359.4315 0001917  90.4761 269.6590 13.17648312218143
ONEWEB-0463             
1 51650U 22012AE  26200.48339316 -.00000140  00000+0 -39467-3 0  9999
2 51650  87.9149 359.4547 0001981  90.3708 269.7650 13.17649037217927
ONEWEB-0464             
1 51651U 22012AF  26200.48562762 -.00000480  00000+0 -14121-2 0  9999
2 51651  87.8812  29.8440 0001623  96.6349 263.4964 13.10375021213553
ONEWEB-0468             
1 51652U 22012AG  26200.49070728 -.00000324  00000+0 -96471-3 0  9993
2 51652  87.8815  29.8357 0001728  95.8067 264.3257 13.10374810213536
