OBJECT_NAME,OBJECT_ID,EPOCH,MEAN_MOTION,ECCENTRICITY,INCLINATION,RA_OF_ASC_NODE,ARG_OF_PERICENTER,MEAN_ANOMALY,EPHEMERIS_TYPE,CLASSIFICATION_TYPE,NORAD_CAT_ID,ELEMENT_SET_NO,REV_AT_EPOCH,BSTAR,MEAN_MOTION_DOT,MEAN_MOTION_DDOT
ONEWEB-0410,2022-012A,2026-07-19T11:45:48.267072,13.17648173,.00014861,87.9161,359.4342,49.7163,310.4098,0,U,51622,999,21795,-.12962423E-3,-.37E-6,0
ONEWEB-0411,2022-012B,2026-07-19T11:09:59.018688,13.10372757,.00023634,87.8820,29.8358,94.8847,265.2550,0,U,51623,999,21351,-.8245919E-3,-.275E-5,0
ONEWEB-0415,2022-012C,2026-07-19T11:05:06.012096,13.10369371,.00021077,87.8816,29.8341,86.6062,273.5306,0,U,51624,999,21351,-.5298981E-3,-.172E-5,0
ONEWEB-0416,2022-012D,2026-07-19T11:22:11.830656,13.10373848,.00021456,87.8811,29.8481,83.4550,276.6822,0,U,51625,999,21355,-.17031911E-2,-.582E-5,0
ONEWEB-0422,2022-012E,2026-07-19T12:00:23.309856,13.17647921,.00020173,87.9159,359.4330,112.6134,247.5212,0,U,51626,999,21806,-.4842068E-5,.11E-6,0
ONEWEB-0423,2022-012F,2026-07-19T11:50:40.444224,13.17648849,.00017543,87.9150,359.4374,92.8146,267.3187,0,U,51627,999,21795,.11379562E-3,.57E-6,0
ONEWEB-0425,2022-012G,2026-07-19T11:36:55.130688,13.10317634,.00024566,87.8827,29.8304,92.1028,268.0380,0,U,51628,999,21355,-.33445622E-1,-.11639E-3,0
ONEWEB-0428,2022-012H,2026-07-19T11:07:32.054016,13.10372733,.00018272,87.8809,29.8410,88.9185,271.2152,0,U,51629,999,21351,-.76547757E-3,-.255E-5,0
ONEWEB-0431,2022-012J,2026-07-19T12:13:19.425504,13.10374413,.00024265,87.8820,29.8246,94.2714,265.8691,0,U,51630,999,21357,.15209728E-2,.544E-5,0
ONEWEB-0434,2022-012K,2026-07-19T11:41:57.429600,13.10376715,.00014135,87.8824,29.8555,70.6886,289.4394,0,U,51631,999,21355,-.12415289E-2,-.421E-5,0
ONEWEB-0435,2022-012L,2026-07-19T11:51:31.046976,13.10379402,.00019335,87.8818,29.8378,98.3140,261.8207,0,U,51632,999,21354,-.42736062E-3,-.137E-5,0
ONEWEB-0436,2022-012M,2026-07-19T11:38:31.381152,13.17647484,.00019688,87.9155,359.4229,99.9416,260.1938,0,U,51633,999,21793,.61780026E-4,.37E-6,0
ONEWEB-0438,2022-012N,2026-07-19T11:29:30.711552,13.10372308,.00017709,87.8817,29.8446,81.4217,278.7111,0,U,51634,999,21357,-.20114675E-2,-.689E-5,0
ONEWEB-0439,2022-012P,2026-07-19T11:34:24.500064,13.10375943,.00017404,87.8817,29.8317,87.1211,273.0115,0,U,51635,999,21355,-.17875164E-2,-.611E-5,0
ONEWEB-0442,2022-012Q,2026-07-19T11:27:35.329536,13.17650711,.00015779,87.9151,359.4541,76.1941,283.9366,0,U,51636,999,21792,-.99917727E-4,-.26E-6,0
ONEWEB-0443,2022-012R,2026-07-19T11:55:31.763424,13.17647735,.00015881,87.9147,359.4518,99.3494,260.7817,0,U,51637,999,21797,.21745323E-3,.97E-6,0
ONEWEB-0444,2022-012S,2026-07-19T11:19:44.679360,13.10371061,.00016638,87.8819,29.8324,92.2237,267.9080,0,U,51638,999,21356,-.17187104E-2,-.587E-5,0
ONEWEB-0445,2022-012T,2026-07-19T11:49:03.708192,13.10376342,.00019068,87.8825,29.8188,85.4474,274.6871,0,U,51639,999,21357,-.16122877E-2,-.55E-5,0
ONEWEB-0446,2022-012U,2026-07-19T11:17:17.938464,13.10370491,.00020804,87.8814,29.8497,81.7662,278.3701,0,U,51640,999,21355,-.14947766E-2,-.509E-5,0
ONEWEB-0448,2022-012V,2026-07-19T11:24:37.599552,13.10371945,.00018195,87.8813,29.8441,89.0002,271.1334,0,U,51641,999,21352,-.18445313E-2,-.631E-5,0
ONEWEB-0449,2022-012W,2026-07-19T11:31:57.419616,13.10373307,.00017473,87.8824,29.8305,68.9724,291.1591,0,U,51642,999,21353,-.20850934E-2,-.715E-5,0
ONEWEB-0451,2022-012X,2026-07-19T11:33:38.959488,13.17648840,.00016892,87.9160,359.4219,89.5771,270.5554,0,U,51643,999,21791,-.55154238E-3,-.201E-5,0
ONEWEB-0452,2022-012Y,2026-07-19T11:31:14.068416,13.17646953,.00015382,87.9146,359.4561,94.0035,266.1273,0,U,51644,999,21792,.99589185E-4,.52E-6,0
ONEWEB-0456,2022-012AA,2026-07-19T11:44:10.114080,13.10374556,.00017795,87.8833,29.8183,93.6455,266.4876,0,U,51646,999,21357,-.12359503E-2,-.419E-5,0
ONEWEB-0457,2022-012AB,2026-07-19T11:12:13.404384,13.10369800,.00020289,87.8816,29.8378,78.6709,281.4646,0,U,51647,999,21357,-.11388841E-2,-.385E-5,0
ONEWEB-0458,2022-012AC,2026-07-19T11:42:57.757536,13.10375826,.00016081,87.8819,29.8223,88.5457,271.5854,0,U,51648,999,21353,-.12942909E-2,-.439E-5,0
ONEWEB-0461,2022-012AD,2026-07-19T12:02:49.159104,13.17648312,.00019173,87.9161,359.4315,90.4761,269.6590,0,U,51649,999,21814,-.34146759E-3,-.12E-5,0
ONEWEB-0463,2022-012AE,2026-07-19T11:36:05.169024,13.17649037,.0001981,87.9149,359.4547,90.3708,269.7650,0,U,51650,999,21792,-.39466813E-3,-.14E-5,0
ONEWEB-0464,2022-012AF,2026-07-19T11:39:18.226368,13.10375021,.00016235,87.8812,29.8440,96.6349,263.4964,0,U,51651,999,21355,-.14120567E-2,-.48E-5,0
ONEWEB-0468,2022-012AG,2026-07-19T11:46:37.108992,13.10374810,.00017289,87.8815,29.8357,95.8067,264.3257,0,U,51652,999,21353,-.96471432E-3,-.324E-5,0
